{"type": "FeatureCollection", "features": [ {"type": "Feature", "properties": {"norad_id": 66876, "name": "STARLINK-35702", "group": "last-30-days", "lat": -37.99670468889684, "lon": 73.76894128917992, "alt_km": 288.29084265946585, "timestamp": "2025-12-11T08:58:25.856918+00:00", "meta": {"OBJECT_NAME": "STARLINK-35702", "OBJECT_ID": "2025-281AE", "EPOCH": "2025-12-10T18:00:02.000160", "MEAN_MOTION": 15.97131878, "ECCENTRICITY": 0.0001742, "INCLINATION": 43.002, "RA_OF_ASC_NODE": 134.6356, "ARG_OF_PERICENTER": 276.3063, "MEAN_ANOMALY": 29.2605, "EPHEMERIS_TYPE": 0, "CLASSIFICATION_TYPE": "U", "NORAD_CAT_ID": 66876, "ELEMENT_SET_NO": 999, "REV_AT_EPOCH": 247, "BSTAR": -0.0027497, "MEAN_MOTION_DOT": -0.01244535, "MEAN_MOTION_DDOT": 0.00047441}, "tle": {"line1": "1 66876U 25281AE  25344.75002315 -.01244535  47441-3 -27497-2 0  9992", "line2": "2 66876  43.0020 134.6356 0001742 276.3063  29.2605 15.97131878  2470"}}, "geometry": {"type": "Point", "coordinates": [73.76894128917992, -37.99670468889684]}}, {"type": "Feature", "properties": {"norad_id": 66877, "name": "ZQ-3 R/B", "group": "last-30-days", "lat": -2.7802531746220804, "lon": 61.08015126279102, "alt_km": 1117.4293112895693, "timestamp": "2025-12-11T08:58:25.856929+00:00", "meta": {"OBJECT_NAME": "ZQ-3 R/B", "OBJECT_ID": "2025-282A", "EPOCH": "2025-12-10T13:11:34.975104", "MEAN_MOTION": 14.53151085, "ECCENTRICITY": 0.080546, "INCLINATION": 56.9528, "RA_OF_ASC_NODE": 66.0239, "ARG_OF_PERICENTER": 216.1667, "MEAN_ANOMALY": 138.224, "EPHEMERIS_TYPE": 0, "CLASSIFICATION_TYPE": "U", "NORAD_CAT_ID": 66877, "ELEMENT_SET_NO": 999, "REV_AT_EPOCH": 107, "BSTAR": 0.00026051, "MEAN_MOTION_DOT": 0.01257378, "MEAN_MOTION_DDOT": 7.3723e-06}, "tle": {"line1": "1 66877U 25282A   25344.54971036  .01257378  73723-5  26051-3 0  9993", "line2": "2 66877  56.9528  66.0239 0805460 216.1667 138.2240 14.53151085  1070"}}, "geometry": {"type": "Point", "coordinates": [61.08015126279102, -2.7802531746220804]}}, {"type": "Feature", "properties": {"norad_id": 66906, "name": "1998-067XS", "group": "last-30-days", "lat": -8.239563921496291, "lon": 142.60275269256542, "alt_km": 419.42240167976433, "timestamp": "2025-12-11T08:58:25.856939+00:00", "meta": {"OBJECT_NAME": "1998-067XS", "OBJECT_ID": "1998-067XS", "EPOCH": "2025-12-11T04:22:42.252672", "MEAN_MOTION": 15.50439588, "ECCENTRICITY": 0.0003747, "INCLINATION": 51.6302, "RA_OF_ASC_NODE": 150.1407, "ARG_OF_PERICENTER": 195.2111, "MEAN_ANOMALY": 164.8766, "EPHEMERIS_TYPE": 0, "CLASSIFICATION_TYPE": "U", "NORAD_CAT_ID": 66906, "ELEMENT_SET_NO": 999, "REV_AT_EPOCH": 137, "BSTAR": 0.00067409, "MEAN_MOTION_DOT": 0.00038814, "MEAN_MOTION_DDOT": 0}, "tle": {"line1": "1 66906U 98067XS  25345.18243348  .00038814  00000+0  67409-3 0  9991", "line2": "2 66906  51.6302 150.1407 0003747 195.2111 164.8766 15.50439588  1372"}}, "geometry": {"type": "Point", "coordinates": [142.60275269256542, -8.239563921496291]}}, {"type": "Feature", "properties": {"norad_id": 66907, "name": "1998-067XT", "group": "last-30-days", "lat": 0.4597205747631241, "lon": 149.52914579500336, "alt_km": 416.6923079079843, "timestamp": "2025-12-11T08:58:25.856949+00:00", "meta": {"OBJECT_NAME": "1998-067XT", "OBJECT_ID": "1998-067XT", "EPOCH": "2025-12-09T12:07:37.114752", "MEAN_MOTION": 15.50864429, "ECCENTRICITY": 0.00048036, "INCLINATION": 51.6307, "RA_OF_ASC_NODE": 158.4423, "ARG_OF_PERICENTER": 208.5081, "MEAN_ANOMALY": 151.5646, "EPHEMERIS_TYPE": 0, "CLASSIFICATION_TYPE": "U", "NORAD_CAT_ID": 66907, "ELEMENT_SET_NO": 999, "REV_AT_EPOCH": 111, "BSTAR": 0.0012921241, "MEAN_MOTION_DOT": 0.00076342, "MEAN_MOTION_DDOT": 0}, "tle": {"line1": "1 66907U 98067XT  25343.50529068  .00076342  00000+0  12921-2 0  9998", "line2": "2 66907  51.6307 158.4423 0004803 208.5081 151.5646 15.50864429  1113"}}, "geometry": {"type": "Point", "coordinates": [149.52914579500336, 0.4597205747631241]}}, {"type": "Feature", "properties": {"norad_id": 66908, "name": "1998-067XU", "group": "last-30-days", "lat": 1.6986196067695105, "lon": 150.509842167816, "alt_km": 416.3180242825274, "timestamp": "2025-12-11T08:58:25.856960+00:00", "meta": {"OBJECT_NAME": "1998-067XU", "OBJECT_ID": "1998-067XU", "EPOCH": "2025-12-10T15:57:23.331168", "MEAN_MOTION": 15.51115637, "ECCENTRICITY": 0.00048129, "INCLINATION": 51.6304, "RA_OF_ASC_NODE": 152.6848, "ARG_OF_PERICENTER": 213.5482, "MEAN_ANOMALY": 146.5203, "EPHEMERIS_TYPE": 0, "CLASSIFICATION_TYPE": "U", "NORAD_CAT_ID": 66908, "ELEMENT_SET_NO": 999, "REV_AT_EPOCH": 129, "BSTAR": 0.0014713865, "MEAN_MOTION_DOT": 0.00087912, "MEAN_MOTION_DDOT": 0}, "tle": {"line1": "1 66908U 98067XU  25344.66485337  .00087912  00000+0  14714-2 0  9994", "line2": "2 66908  51.6304 152.6848 0004812 213.5482 146.5203 15.51115637  1292"}}, "geometry": {"type": "Point", "coordinates": [150.509842167816, 1.6986196067695105]}}, {"type": "Feature", "properties": {"norad_id": 66909, "name": "SILVERSAT", "group": "last-30-days", "lat": 2.9155909425541413, "lon": 151.4732122394171, "alt_km": 415.7456734490461, "timestamp": "2025-12-11T08:58:25.856970+00:00", "meta": {"OBJECT_NAME": "SILVERSAT", "OBJECT_ID": "1998-067XV", "EPOCH": "2025-12-10T17:29:49.371360", "MEAN_MOTION": 15.51224506, "ECCENTRICITY": 0.00046681, "INCLINATION": 51.6307, "RA_OF_ASC_NODE": 152.3636, "ARG_OF_PERICENTER": 216.2554, "MEAN_ANOMALY": 143.8119, "EPHEMERIS_TYPE": 0, "CLASSIFICATION_TYPE": "U", "NORAD_CAT_ID": 66909, "ELEMENT_SET_NO": 999, "REV_AT_EPOCH": 130, "BSTAR": 0.0015305983, "MEAN_MOTION_DOT": 0.00091869, "MEAN_MOTION_DDOT": 0}, "tle": {"line1": "1 66909U 98067XV  25344.72904365  .00091869  00000+0  15306-2 0  9993", "line2": "2 66909  51.6307 152.3636 0004668 216.2554 143.8119 15.51224506  1301"}}, "geometry": {"type": "Point", "coordinates": [151.4732122394171, 2.9155909425541413]}}, {"type": "Feature", "properties": {"norad_id": 66910, "name": "1998-067XW", "group": "last-30-days", "lat": 8.891215986220743, "lon": 156.26479396630918, "alt_km": 415.55155050646135, "timestamp": "2025-12-11T08:58:25.856984+00:00", "meta": {"OBJECT_NAME": "1998-067XW", "OBJECT_ID": "1998-067XW", "EPOCH": "2025-12-10T11:16:54.563808", "MEAN_MOTION": 15.51350337, "ECCENTRICITY": 0.00055419, "INCLINATION": 51.6299, "RA_OF_ASC_NODE": 153.6351, "ARG_OF_PERICENTER": 197.1967, "MEAN_ANOMALY": 162.8836, "EPHEMERIS_TYPE": 0, "CLASSIFICATION_TYPE": "U", "NORAD_CAT_ID": 66910, "ELEMENT_SET_NO": 999, "REV_AT_EPOCH": 126, "BSTAR": 0.0013818348, "MEAN_MOTION_DOT": 0.00083191, "MEAN_MOTION_DDOT": 0}, "tle": {"line1": "1 66910U 98067XW  25344.47007597  .00083191  00000+0  13818-2 0  9993", "line2": "2 66910  51.6299 153.6351 0005541 197.1967 162.8836 15.51350337  1261"}}, "geometry": {"type": "Point", "coordinates": [156.26479396630918, 8.891215986220743]}}, {"type": "Feature", "properties": {"norad_id": 66911, "name": "1998-067XX", "group": "last-30-days", "lat": 11.104352166377765, "lon": 158.08620742963933, "alt_km": 414.42825582283876, "timestamp": "2025-12-11T08:58:25.856995+00:00", "meta": {"OBJECT_NAME": "1998-067XX", "OBJECT_ID": "1998-067XX", "EPOCH": "2025-12-11T04:16:32.481408", "MEAN_MOTION": 15.5166419, "ECCENTRICITY": 0.0005192, "INCLINATION": 51.6299, "RA_OF_ASC_NODE": 150.1129, "ARG_OF_PERICENTER": 201.0739, "MEAN_ANOMALY": 159.0037, "EPHEMERIS_TYPE": 0, "CLASSIFICATION_TYPE": "U", "NORAD_CAT_ID": 66911, "ELEMENT_SET_NO": 999, "REV_AT_EPOCH": 136, "BSTAR": 0.0016096, "MEAN_MOTION_DOT": 0.00098261, "MEAN_MOTION_DDOT": 0}, "tle": {"line1": "1 66911U 98067XX  25345.17815372  .00098261  00000+0  16096-2 0  9995", "line2": "2 66911  51.6299 150.1129 0005192 201.0739 159.0037 15.51664190  1368"}}, "geometry": {"type": "Point", "coordinates": [158.08620742963933, 11.104352166377765]}}, {"type": "Feature", "properties": {"norad_id": 66912, "name": "1998-067XY", "group": "last-30-days", "lat": -2.549237714301188, "lon": 147.15406497707133, "alt_km": 417.62012113558194, "timestamp": "2025-12-11T08:58:25.857008+00:00", "meta": {"OBJECT_NAME": "1998-067XY", "OBJECT_ID": "1998-067XY", "EPOCH": "2025-12-10T17:31:22.847520", "MEAN_MOTION": 15.50838333, "ECCENTRICITY": 0.00047912, "INCLINATION": 51.6309, "RA_OF_ASC_NODE": 152.3712, "ARG_OF_PERICENTER": 213.0974, "MEAN_ANOMALY": 146.9716, "EPHEMERIS_TYPE": 0, "CLASSIFICATION_TYPE": "U", "NORAD_CAT_ID": 66912, "ELEMENT_SET_NO": 999, "REV_AT_EPOCH": 129, "BSTAR": 0.0011490073, "MEAN_MOTION_DOT": 0.00067697, "MEAN_MOTION_DDOT": 0}, "tle": {"line1": "1 66912U 98067XY  25344.73012555  .00067697  00000+0  11490-2 0  9991", "line2": "2 66912  51.6309 152.3712 0004791 213.0974 146.9716 15.50838333  1293"}}, "geometry": {"type": "Point", "coordinates": [147.15406497707133, -2.549237714301188]}}, {"type": "Feature", "properties": {"norad_id": 66913, "name": "2025-284A", "group": "last-30-days", "lat": 23.62585702872579, "lon": -52.747603024840245, "alt_km": 503.59105078736775, "timestamp": "2025-12-11T08:58:25.857019+00:00", "meta": {"OBJECT_NAME": "2025-284A", "OBJECT_ID": "2025-284A", "EPOCH": "2025-12-11T05:07:36.722208", "MEAN_MOTION": 15.18919324, "ECCENTRICITY": 0.001201, "INCLINATION": 80.4047, "RA_OF_ASC_NODE": 131.6993, "ARG_OF_PERICENTER": 209.2547, "MEAN_ANOMALY": 150.8009, "EPHEMERIS_TYPE": 0, "CLASSIFICATION_TYPE": "U", "NORAD_CAT_ID": 66913, "ELEMENT_SET_NO": 999, "REV_AT_EPOCH": 89, "BSTAR": 0.00076013, "MEAN_MOTION_DOT": 0.00015934, "MEAN_MOTION_DDOT": 0}, "tle": {"line1": "1 66913U 25284A   25345.21361947  .00015934  00000+0  76013-3 0  9999", "line2": "2 66913  80.4047 131.6993 0012010 209.2547 150.8009 15.18919324   898"}}, "geometry": {"type": "Point", "coordinates": [-52.747603024840245, 23.62585702872579]}}]}